[{"OBJECT_NAME":"IRIDIUM 33 DEB","OBJECT_ID":"1997-051GC","EPOCH":"2026-04-04T02:45:28.896192","MEAN_MOTION":14.43414777,"ECCENTRICITY":0.00327269,"INCLINATION":86.3437,"RA_OF_ASC_NODE":324.0197,"ARG_OF_PERICENTER":116.9801,"MEAN_ANOMALY":35.6791,"EPHEMERIS_TYPE":0,"CLASSIFICATION_TYPE":"U","NORAD_CAT_ID":34487,"ELEMENT_SET_NO":999,"REV_AT_EPOCH":89869,"BSTAR":0.00027200571,"MEAN_MOTION_DOT":9.44e-6,"MEAN_MOTION_DDOT":0},{"OBJECT_NAME":"IRIDIUM 33 DEB","OBJECT_ID":"1997-051GH","EPOCH":"2026-04-03T00:01:54.974208","MEAN_MOTION":14.28173827,"ECCENTRICITY":0.01808565,"INCLINATION":86.4687,"RA_OF_ASC_NODE":289.5675,"ARG_OF_PERICENTER":239.8921,"MEAN_ANOMALY":274.5907,"EPHEMERIS_TYPE":0,"CLASSIFICATION_TYPE":"U","NORAD_CAT_ID":34492,"ELEMENT_SET_NO":999,"REV_AT_EPOCH":86645,"BSTAR":0.0047997645,"MEAN_MOTION_DOT":0.00014264,"MEAN_MOTION_DDOT":0},{"OBJECT_NAME":"IRIDIUM 33 DEB","OBJECT_ID":"1997-051GN","EPOCH":"2026-04-02T00:46:10.371936","MEAN_MOTION":14.27887734,"ECCENTRICITY":0.00794753,"INCLINATION":86.2836,"RA_OF_ASC_NODE":5.2749,"ARG_OF_PERICENTER":344.6464,"MEAN_ANOMALY":32.4918,"EPHEMERIS_TYPE":0,"CLASSIFICATION_TYPE":"U","NORAD_CAT_ID":34497,"ELEMENT_SET_NO":999,"REV_AT_EPOCH":88457,"BSTAR":0.00082752836,"MEAN_MOTION_DOT":2.136e-5,"MEAN_MOTION_DDOT":0},{"OBJECT_NAME":"IRIDIUM 33 DEB","OBJECT_ID":"1997-051GZ","EPOCH":"2026-04-03T08:44:26.873088","MEAN_MOTION":14.39299353,"ECCENTRICITY":0.00640236,"INCLINATION":86.3697,"RA_OF_ASC_NODE":55.2505,"ARG_OF_PERICENTER":164.441,"MEAN_ANOMALY":195.8777,"EPHEMERIS_TYPE":0,"CLASSIFICATION_TYPE":"U","NORAD_CAT_ID":34508,"ELEMENT_SET_NO":999,"REV_AT_EPOCH":88914,"BSTAR":0.0018350441,"MEAN_MOTION_DOT":5.855e-5,"MEAN_MOTION_DDOT":0},{"OBJECT_NAME":"IRIDIUM 33 DEB","OBJECT_ID":"1997-051HN","EPOCH":"2026-04-04T03:20:06.072288","MEAN_MOTION":14.65042183,"ECCENTRICITY":9.507e-5,"INCLINATION":86.3815,"RA_OF_ASC_NODE":341.0171,"ARG_OF_PERICENTER":223.701,"MEAN_ANOMALY":136.4127,"EPHEMERIS_TYPE":0,"CLASSIFICATION_TYPE":"U","NORAD_CAT_ID":34521,"ELEMENT_SET_NO":999,"REV_AT_EPOCH":90117,"BSTAR":0.0022489272,"MEAN_MOTION_DOT":0.00012089,"MEAN_MOTION_DDOT":0},{"OBJECT_NAME":"IRIDIUM 33 DEB","OBJECT_ID":"1997-051HS","EPOCH":"2026-04-04T05:50:50.245440","MEAN_MOTION":14.4324463,"ECCENTRICITY":0.00067472,"INCLINATION":86.378,"RA_OF_ASC_NODE":358.824,"ARG_OF_PERICENTER":80.1769,"MEAN_ANOMALY":44.5947,"EPHEMERIS_TYPE":0,"CLASSIFICATION_TYPE":"U","NORAD_CAT_ID":34525,"ELEMENT_SET_NO":999,"REV_AT_EPOCH":89710,"BSTAR":0.00052972117,"MEAN_MOTION_DOT":1.802e-5,"MEAN_MOTION_DDOT":0},{"OBJECT_NAME":"IRIDIUM 33 DEB","OBJECT_ID":"1997-051HW","EPOCH":"2026-04-04T03:33:17.898912","MEAN_MOTION":14.40774822,"ECCENTRICITY":0.00047413,"INCLINATION":86.3681,"RA_OF_ASC_NODE":347.5098,"ARG_OF_PERICENTER":167.071,"MEAN_ANOMALY":193.0612,"EPHEMERIS_TYPE":0,"CLASSIFICATION_TYPE":"U","NORAD_CAT_ID":34529,"ELEMENT_SET_NO":999,"REV_AT_EPOCH":89760,"BSTAR":0.00029443197,"MEAN_MOTION_DOT":9.61e-6,"MEAN_MOTION_DDOT":0},{"OBJECT_NAME":"IRIDIUM 33 DEB","OBJECT_ID":"1997-051JF","EPOCH":"2026-04-03T15:51:08.070912","MEAN_MOTION":14.43407188,"ECCENTRICITY":0.00332187,"INCLINATION":86.2748,"RA_OF_ASC_NODE":316.5267,"ARG_OF_PERICENTER":318.0147,"MEAN_ANOMALY":103.4263,"EPHEMERIS_TYPE":0,"CLASSIFICATION_TYPE":"U","NORAD_CAT_ID":34538,"ELEMENT_SET_NO":999,"REV_AT_EPOCH":89370,"BSTAR":0.0010551272,"MEAN_MOTION_DOT":3.604e-5,"MEAN_MOTION_DDOT":0},{"OBJECT_NAME":"IRIDIUM 33 DEB","OBJECT_ID":"1997-051JH","EPOCH":"2026-04-03T17:40:02.948736","MEAN_MOTION":14.78015323,"ECCENTRICITY":0.00171974,"INCLINATION":86.3065,"RA_OF_ASC_NODE":256.2732,"ARG_OF_PERICENTER":137.6787,"MEAN_ANOMALY":236.8316,"EPHEMERIS_TYPE":0,"CLASSIFICATION_TYPE":"U","NORAD_CAT_ID":34540,"ELEMENT_SET_NO":999,"REV_AT_EPOCH":90674,"BSTAR":0.0028809831,"MEAN_MOTION_DOT":0.00020905,"MEAN_MOTION_DDOT":0},{"OBJECT_NAME":"IRIDIUM 33 DEB","OBJECT_ID":"1997-051JZ","EPOCH":"2026-04-03T02:22:28.976736","MEAN_MOTION":14.13743426,"ECCENTRICITY":0.01729618,"INCLINATION":86.3924,"RA_OF_ASC_NODE":236.9005,"ARG_OF_PERICENTER":305.9199,"MEAN_ANOMALY":52.6039,"EPHEMERIS_TYPE":0,"CLASSIFICATION_TYPE":"U","NORAD_CAT_ID":34648,"ELEMENT_SET_NO":999,"REV_AT_EPOCH":86533,"BSTAR":0.0057386212,"MEAN_MOTION_DOT":0.00012542,"MEAN_MOTION_DDOT":0},{"OBJECT_NAME":"IRIDIUM 33 DEB","OBJECT_ID":"1997-051KC","EPOCH":"2026-04-03T06:12:02.698848","MEAN_MOTION":14.2760771,"ECCENTRICITY":0.0133077,"INCLINATION":86.2769,"RA_OF_ASC_NODE":93.0236,"ARG_OF_PERICENTER":203.377,"MEAN_ANOMALY":156.1338,"EPHEMERIS_TYPE":0,"CLASSIFICATION_TYPE":"U","NORAD_CAT_ID":34651,"ELEMENT_SET_NO":999,"REV_AT_EPOCH":87486,"BSTAR":0.003534,"MEAN_MOTION_DOT":9.582e-5,"MEAN_MOTION_DDOT":0},{"OBJECT_NAME":"IRIDIUM 33 DEB","OBJECT_ID":"1997-051KD","EPOCH":"2026-04-03T00:08:07.042848","MEAN_MOTION":14.6316361,"ECCENTRICITY":0.00255498,"INCLINATION":86.3254,"RA_OF_ASC_NODE":290.4217,"ARG_OF_PERICENTER":276.8921,"MEAN_ANOMALY":215.0908,"EPHEMERIS_TYPE":0,"CLASSIFICATION_TYPE":"U","NORAD_CAT_ID":34652,"ELEMENT_SET_NO":999,"REV_AT_EPOCH":90110,"BSTAR":0.0013121819,"MEAN_MOTION_DOT":6.802e-5,"MEAN_MOTION_DDOT":0},{"OBJECT_NAME":"IRIDIUM 33 DEB","OBJECT_ID":"1997-051KM","EPOCH":"2026-04-04T03:29:03.175296","MEAN_MOTION":14.55574617,"ECCENTRICITY":0.00104936,"INCLINATION":86.3812,"RA_OF_ASC_NODE":348.1347,"ARG_OF_PERICENTER":8.6186,"MEAN_ANOMALY":147.9258,"EPHEMERIS_TYPE":0,"CLASSIFICATION_TYPE":"U","NORAD_CAT_ID":34690,"ELEMENT_SET_NO":999,"REV_AT_EPOCH":89729,"BSTAR":0.00078068435,"MEAN_MOTION_DOT":3.425e-5,"MEAN_MOTION_DDOT":0},{"OBJECT_NAME":"IRIDIUM 33 DEB","OBJECT_ID":"1997-051KT","EPOCH":"2026-04-03T02:37:03.790560","MEAN_MOTION":14.73987176,"ECCENTRICITY":0.0059113,"INCLINATION":86.1822,"RA_OF_ASC_NODE":335.3377,"ARG_OF_PERICENTER":141.3252,"MEAN_ANOMALY":19.9298,"EPHEMERIS_TYPE":0,"CLASSIFICATION_TYPE":"U","NORAD_CAT_ID":34696,"ELEMENT_SET_NO":999,"REV_AT_EPOCH":88308,"BSTAR":0.010002525,"MEAN_MOTION_DOT":0.00068165,"MEAN_MOTION_DDOT":0},{"OBJECT_NAME":"IRIDIUM 33 DEB","OBJECT_ID":"1997-051LJ","EPOCH":"2026-04-04T04:08:55.336416","MEAN_MOTION":14.40824238,"ECCENTRICITY":0.00150144,"INCLINATION":86.3427,"RA_OF_ASC_NODE":344.5254,"ARG_OF_PERICENTER":201.5772,"MEAN_ANOMALY":311.7453,"EPHEMERIS_TYPE":0,"CLASSIFICATION_TYPE":"U","NORAD_CAT_ID":34765,"ELEMENT_SET_NO":999,"REV_AT_EPOCH":89232,"BSTAR":0.00055758374,"MEAN_MOTION_DOT":1.806e-5,"MEAN_MOTION_DDOT":0},{"OBJECT_NAME":"IRIDIUM 33 DEB","OBJECT_ID":"1997-051MH","EPOCH":"2026-04-03T23:09:40.618944","MEAN_MOTION":14.53228585,"ECCENTRICITY":0.00218848,"INCLINATION":86.3987,"RA_OF_ASC_NODE":2.6056,"ARG_OF_PERICENTER":80.1577,"MEAN_ANOMALY":42.7979,"EPHEMERIS_TYPE":0,"CLASSIFICATION_TYPE":"U","NORAD_CAT_ID":34833,"ELEMENT_SET_NO":999,"REV_AT_EPOCH":89344,"BSTAR":0.0014311244,"MEAN_MOTION_DOT":5.972e-5,"MEAN_MOTION_DDOT":0}]
