IRIDIUM 33 DEB          
1 34487U 97051GC  26094.11491778  .00000944  00000+0  27201-3 0  9998
2 34487  86.3437 324.0197 0032726 116.9801  35.6791 14.43414777898694
IRIDIUM 33 DEB          
1 34492U 97051GH  26093.00133072  .00014264  00000+0  47998-2 0  9995
2 34492  86.4687 289.5675 0180856 239.8921 274.5907 14.28173827866453
IRIDIUM 33 DEB          
1 34497U 97051GN  26092.03206449  .00002136  00000+0  82753-3 0  9995
2 34497  86.2836   5.2749 0079475 344.6464  32.4918 14.27887734884572
IRIDIUM 33 DEB          
1 34508U 97051GZ  26093.36419992  .00005855  00000+0  18350-2 0  9996
2 34508  86.3697  55.2505 0064023 164.4410 195.8777 14.39299353889140
IRIDIUM 33 DEB          
1 34521U 97051HN  26094.13895917  .00012089  00000+0  22489-2 0  9997
2 34521  86.3815 341.0171 0000950 223.7010 136.4127 14.65042183901170
IRIDIUM 33 DEB          
1 34525U 97051HS  26094.24363710  .00001802  00000+0  52972-3 0  9996
2 34525  86.3780 358.8240 0006747  80.1769  44.5947 14.43244630897107
IRIDIUM 33 DEB          
1 34529U 97051HW  26094.14812383  .00000961  00000+0  29443-3 0  9996
2 34529  86.3681 347.5098 0004741 167.0710 193.0612 14.40774822897602
IRIDIUM 33 DEB          
1 34538U 97051JF  26093.66051008  .00003604  00000+0  10551-2 0  9997
2 34538  86.2748 316.5267 0033218 318.0147 103.4263 14.43407188893707
IRIDIUM 33 DEB          
1 34540U 97051JH  26093.73614524  .00020905  00000+0  28810-2 0  9996
2 34540  86.3065 256.2732 0017197 137.6787 236.8316 14.78015323906746
IRIDIUM 33 DEB          
1 34648U 97051JZ  26093.09894649  .00012542  00000+0  57386-2 0  9990
2 34648  86.3924 236.9005 0172961 305.9199  52.6039 14.13743426865331
IRIDIUM 33 DEB          
1 34651U 97051KC  26093.25836457  .00009582  00000+0  35340-2 0  9991
2 34651  86.2769  93.0236 0133077 203.3770 156.1338 14.27607710874860
IRIDIUM 33 DEB          
1 34652U 97051KD  26093.00563707  .00006802  00000+0  13122-2 0  9996
2 34652  86.3254 290.4217 0025549 276.8921 215.0908 14.63163610901102
IRIDIUM 33 DEB          
1 34690U 97051KM  26094.14517564  .00003425  00000+0  78068-3 0  9993
2 34690  86.3812 348.1347 0010493   8.6186 147.9258 14.55574617897294
IRIDIUM 33 DEB          
1 34696U 97051KT  26093.10907165  .00068165  00000+0  10003-1 0  9999
2 34696  86.1822 335.3377 0059113 141.3252  19.9298 14.73987176883083
IRIDIUM 33 DEB          
1 34765U 97051LJ  26094.17286269  .00001806  00000+0  55758-3 0  9996
2 34765  86.3427 344.5254 0015014 201.5772 311.7453 14.40824238892323
IRIDIUM 33 DEB          
1 34833U 97051MH  26093.96505346  .00005972  00000+0  14311-2 0  9995
2 34833  86.3987   2.6056 0021884  80.1577  42.7979 14.53228585893443
